{"type":"FeatureCollection","features":[{"type":"Feature","properties":{"SchName":"Boulder High","SchCode":310,"SchType":"High","StdtPop":0},"geometry":{"type":"Polygon","coordinates":[[[-105.3566,40.1307],[-105.3567,40.1236],[-105.3476,40.1236],[-105.3383,40.1239],[-105.3286,40.1238],[-105.3287,40.1163],[-105.3286,40.1066],[-105.3286,40.1054],[-105.3286,40.102],[-105.3289,40.102],[-105.3286,40.1018],[-105.3196,40.1019],[-105.3138,40.102],[-105.3119,40.102],[-105.3095,40.102],[-105.3065,40.1021],[-105.3057,40.1021],[-105.3061,40.1093],[-105.3012,40.1142],[-105.3014,40.1093],[-105.3012,40.1019],[-105.2822,40.1018],[-105.2821,40.0874],[-105.2821,40.0873],[-105.2819,40.0873],[-105.2819,40.0874],[-105.2795,40.0874],[-105.2635,40.0874],[-105.2068,40.0872],[-105.2068,40.0945],[-105.1973,40.0946],[-105.1974,40.0873],[-105.1974,40.0826],[-105.1975,40.0826],[-105.2014,40.0791],[-105.2046,40.0764],[-105.2052,40.0759],[-105.2069,40.0745],[-105.2069,40.0744],[-105.2068,40.0712],[-105.2068,40.0672],[-105.2068,40.0622],[-105.2068,40.0618],[-105.2068,40.0611],[-105.2069,40.0566],[-105.2069,40.0542],[-105.2069,40.051],[-105.1688,40.0511],[-105.1688,40.0437],[-105.1689,40.0145],[-105.1795,40.0147],[-105.213,40.0146],[-105.2156,40.0146],[-105.2191,40.0146],[-105.2205,40.0146],[-105.2406,40.0146],[-105.2443,40.0146],[-105.2561,40.0146],[-105.2561,40.0109],[-105.2586,40.0109],[-105.2584,40.0005],[-105.2584,40.0003],[-105.2601,40.0004],[-105.2602,40.0004],[-105.2603,39.9976],[-105.2613,39.9977],[-105.2617,39.9974],[-105.2565,39.9895],[-105.2563,39.9893],[-105.2571,39.9893],[-105.2576,39.9893],[-105.2581,39.9893],[-105.263,39.9893],[-105.2635,39.9893],[-105.2699,39.9893],[-105.2705,39.9899],[-105.2714,39.9894],[-105.2715,39.9893],[-105.2719,39.9893],[-105.272,39.9893],[-105.272,39.9892],[-105.2721,39.9892],[-105.2723,39.9892],[-105.2725,39.9892],[-105.2725,39.9858],[-105.2725,39.9857],[-105.276,39.9858],[-105.2771,39.9858],[-105.2772,39.9858],[-105.2823,39.9858],[-105.2927,39.9754],[-105.293,39.9751],[-105.2931,39.975],[-105.2949,39.9733],[-105.2967,39.9716],[-105.2982,39.9701],[-105.3005,39.968],[-105.3025,39.966],[-105.3027,39.9658],[-105.3029,39.9657],[-105.3031,39.9655],[-105.3031,39.9654],[-105.3032,39.9654],[-105.3032,39.9653],[-105.3136,39.9549],[-105.3258,39.9431],[-105.3359,39.933],[-105.3366,39.9334],[-105.3401,39.9351],[-105.3434,39.9368],[-105.3444,39.9373],[-105.3516,39.941],[-105.3562,39.9448],[-105.3676,39.9541],[-105.3702,39.9562],[-105.3702,39.9566],[-105.3702,39.9658],[-105.3702,39.9783],[-105.3702,39.9855],[-105.3706,39.9857],[-105.3952,40.0017],[-105.3979,40.0034],[-105.4004,40.005],[-105.4063,40.0086],[-105.4065,40.0087],[-105.4066,40.0087],[-105.4067,40.0088],[-105.4068,40.0089],[-105.4069,40.0089],[-105.4204,40.0089],[-105.4253,40.0089],[-105.4257,40.0089],[-105.4258,40.0089],[-105.4315,40.0115],[-105.4324,40.0119],[-105.4333,40.0124],[-105.4398,40.016],[-105.4447,40.0186],[-105.4462,40.0195],[-105.4477,40.0203],[-105.4493,40.0213],[-105.4668,40.0212],[-105.4698,40.0212],[-105.4753,40.0268],[-105.4775,40.029],[-105.4787,40.0303],[-105.4869,40.0386],[-105.4893,40.0411],[-105.4892,40.0411],[-105.4893,40.0412],[-105.4894,40.0413],[-105.4924,40.0442],[-105.4938,40.0456],[-105.4951,40.047],[-105.4991,40.0512],[-105.4992,40.0513],[-105.4991,40.0514],[-105.4992,40.0514],[-105.504,40.0571],[-105.5041,40.0572],[-105.5067,40.0597],[-105.5126,40.0654],[-105.513,40.0658],[-105.5123,40.0657],[-105.5047,40.0655],[-105.4947,40.0654],[-105.4946,40.0654],[-105.4938,40.0656],[-105.4937,40.0656],[-105.4921,40.0661],[-105.4894,40.0669],[-105.4893,40.0669],[-105.4892,40.067],[-105.4856,40.068],[-105.4761,40.0711],[-105.4673,40.073],[-105.4671,40.073],[-105.4669,40.0731],[-105.4576,40.0776],[-105.4489,40.0818],[-105.4487,40.0819],[-105.4486,40.082],[-105.4481,40.0822],[-105.448,40.0822],[-105.4479,40.0823],[-105.4459,40.0831],[-105.4444,40.0838],[-105.4443,40.0838],[-105.4437,40.0841],[-105.4392,40.0859],[-105.4357,40.0871],[-105.4333,40.0917],[-105.4321,40.0941],[-105.4287,40.101],[-105.4283,40.1016],[-105.4282,40.1018],[-105.4275,40.103],[-105.4254,40.1063],[-105.4226,40.111],[-105.4216,40.1127],[-105.4205,40.1146],[-105.4198,40.1159],[-105.4194,40.1166],[-105.419,40.1172],[-105.4164,40.1218],[-105.4146,40.1249],[-105.4145,40.125],[-105.4133,40.127],[-105.4108,40.132],[-105.4083,40.1379],[-105.4075,40.1398],[-105.4068,40.1416],[-105.4067,40.1417],[-105.4063,40.1428],[-105.4062,40.143],[-105.4061,40.1431],[-105.3923,40.1434],[-105.3749,40.1451],[-105.3567,40.1451],[-105.3566,40.1355],[-105.3566,40.1335],[-105.3566,40.1307]]]}},{"type":"Feature","properties":{"SchName":"Boulder-Fairview","SchCode":3,"SchType":"High","StdtPop":0},"geometry":{"type":"Polygon","coordinates":[[[-105.1979,40.0737],[-105.1979,40.0728],[-105.1939,40.0728],[-105.1885,40.0728],[-105.1881,40.0728],[-105.183,40.0728],[-105.1808,40.0728],[-105.1785,40.0728],[-105.176,40.0728],[-105.1596,40.0727],[-105.1594,40.051],[-105.1688,40.0511],[-105.2069,40.051],[-105.2069,40.0542],[-105.2069,40.0566],[-105.2068,40.0611],[-105.2068,40.0618],[-105.2068,40.0622],[-105.2068,40.0672],[-105.2068,40.0712],[-105.2069,40.0744],[-105.2069,40.0745],[-105.2052,40.0759],[-105.2046,40.0764],[-105.2014,40.0791],[-105.1975,40.0826],[-105.1974,40.0826],[-105.1974,40.0772],[-105.1974,40.077],[-105.1975,40.0762],[-105.1972,40.0761],[-105.1973,40.0757],[-105.1974,40.0756],[-105.1975,40.0755],[-105.1977,40.075],[-105.1978,40.075],[-105.198,40.0748],[-105.1976,40.0746],[-105.1974,40.0745],[-105.1978,40.074],[-105.1979,40.0737]]]}},{"type":"Feature","properties":{"SchName":"Broomfield High","SchCode":315,"SchType":"High","StdtPop":0},"geometry":{"type":"Polygon","coordinates":[[[-105.053,39.9767],[-105.053,39.944],[-105.053,39.9435],[-105.053,39.9251],[-105.0536,39.9251],[-105.053,39.9251],[-105.053,39.9145],[-105.0902,39.9143],[-105.1117,39.9144],[-105.1322,39.9142],[-105.1469,39.9142],[-105.1469,39.9143],[-105.1471,39.9214],[-105.1471,39.9266],[-105.1471,39.9288],[-105.147,39.9289],[-105.147,39.929],[-105.1433,39.9289],[-105.1425,39.9289],[-105.1376,39.9289],[-105.1376,39.929],[-105.1375,39.9335],[-105.1376,39.9394],[-105.1376,39.9395],[-105.1375,39.9395],[-105.1337,39.9378],[-105.1282,39.9353],[-105.1281,39.9352],[-105.1281,39.9353],[-105.1279,39.9386],[-105.1278,39.9433],[-105.1277,39.9445],[-105.1277,39.9453],[-105.1276,39.9457],[-105.1275,39.9463],[-105.1274,39.9465],[-105.1274,39.9467],[-105.1265,39.948],[-105.1262,39.9482],[-105.1262,39.9483],[-105.126,39.9485],[-105.1252,39.9492],[-105.1251,39.9492],[-105.1249,39.9495],[-105.1224,39.9509],[-105.1222,39.9511],[-105.1215,39.9515],[-105.1211,39.9517],[-105.12,39.9524],[-105.1174,39.9539],[-105.1144,39.955],[-105.1118,39.9559],[-105.1095,39.9566],[-105.1094,39.9566],[-105.1093,39.9566],[-105.1082,39.9569],[-105.1068,39.9574],[-105.1043,39.9579],[-105.1034,39.9581],[-105.0991,39.9583],[-105.0958,39.9584],[-105.0929,39.9586],[-105.0903,39.9587],[-105.0877,39.9589],[-105.0858,39.9592],[-105.0841,39.9595],[-105.0835,39.9597],[-105.0815,39.9603],[-105.0795,39.9612],[-105.0787,39.9616],[-105.0769,39.9628],[-105.0748,39.9645],[-105.0745,39.9648],[-105.0728,39.9663],[-105.0719,39.9671],[-105.0711,39.9678],[-105.0702,39.9687],[-105.0688,39.9699],[-105.068,39.9704],[-105.0674,39.9709],[-105.0661,39.9714],[-105.0652,39.9719],[-105.0622,39.9732],[-105.0618,39.9734],[-105.0611,39.9737],[-105.0601,39.9741],[-105.053,39.9772],[-105.053,39.9767]]]}},{"type":"Feature","properties":{"SchName":"Centaurus","SchCode":320,"SchType":"High","StdtPop":0},"geometry":{"type":"Polygon","coordinates":[[[-105.1315,40.0872],[-105.1314,40.0836],[-105.1218,40.0837],[-105.1218,40.0801],[-105.113,40.0802],[-105.1131,40.0799],[-105.1122,40.0799],[-105.1119,40.0795],[-105.1119,40.0799],[-105.1029,40.08],[-105.1023,40.0801],[-105.0933,40.0801],[-105.0839,40.0803],[-105.0821,40.0804],[-105.0798,40.0804],[-105.0798,40.0792],[-105.0744,40.0792],[-105.0744,40.0771],[-105.0745,40.0733],[-105.0745,40.0698],[-105.0745,40.0661],[-105.084,40.066],[-105.0908,40.0658],[-105.0908,40.0635],[-105.091,40.0586],[-105.091,40.055],[-105.0911,40.0516],[-105.0934,40.0514],[-105.0932,40.0503],[-105.0939,40.0502],[-105.0933,40.0496],[-105.0937,40.0494],[-105.0934,40.0491],[-105.0934,40.049],[-105.0932,40.0489],[-105.0932,40.0487],[-105.0932,40.0457],[-105.0932,40.0439],[-105.0745,40.0443],[-105.0745,40.0399],[-105.0745,40.037],[-105.0745,40.0336],[-105.0745,40.0297],[-105.0555,40.0295],[-105.0553,40.0149],[-105.0553,40.0148],[-105.0552,40.0005],[-105.053,40.0005],[-105.053,39.9871],[-105.053,39.9867],[-105.053,39.9772],[-105.0601,39.9741],[-105.0611,39.9737],[-105.0618,39.9734],[-105.0622,39.9732],[-105.0652,39.9719],[-105.0661,39.9714],[-105.0674,39.9709],[-105.068,39.9704],[-105.0688,39.9699],[-105.0702,39.9687],[-105.0711,39.9678],[-105.0719,39.9671],[-105.0728,39.9663],[-105.0745,39.9648],[-105.0748,39.9645],[-105.0769,39.9628],[-105.0787,39.9616],[-105.0795,39.9612],[-105.0815,39.9603],[-105.0835,39.9597],[-105.0841,39.9595],[-105.0858,39.9592],[-105.0877,39.9589],[-105.0903,39.9587],[-105.0929,39.9586],[-105.0958,39.9584],[-105.0991,39.9583],[-105.1034,39.9581],[-105.1043,39.9579],[-105.1068,39.9574],[-105.1082,39.9569],[-105.1093,39.9566],[-105.1094,39.9566],[-105.1095,39.9566],[-105.1095,39.9579],[-105.1094,39.9621],[-105.1093,39.9651],[-105.1094,39.9723],[-105.1094,39.9725],[-105.1107,39.9725],[-105.1141,39.9725],[-105.1142,39.9725],[-105.1141,39.973],[-105.1141,39.9731],[-105.1141,39.9733],[-105.1141,39.9735],[-105.114,39.9758],[-105.114,39.9767],[-105.1139,39.9772],[-105.114,39.9777],[-105.114,39.9801],[-105.1141,39.9833],[-105.1142,39.9833],[-105.1174,39.9832],[-105.1174,39.9833],[-105.1174,39.9841],[-105.1174,39.9845],[-105.1174,39.9849],[-105.1174,39.9852],[-105.1174,39.987],[-105.1186,39.987],[-105.1185,39.9888],[-105.1185,39.9903],[-105.1185,39.9916],[-105.1185,39.9924],[-105.1213,39.9924],[-105.1224,39.9924],[-105.1224,39.9928],[-105.1224,39.9941],[-105.1224,39.9942],[-105.1247,39.9942],[-105.1248,39.9942],[-105.1248,39.9975],[-105.1279,39.9975],[-105.1279,39.9958],[-105.1279,39.9942],[-105.128,39.9942],[-105.1281,39.9942],[-105.1282,39.9942],[-105.1283,39.9942],[-105.1284,39.9942],[-105.1285,39.9942],[-105.1287,39.9942],[-105.1288,39.9942],[-105.1289,39.9942],[-105.1291,39.9942],[-105.1292,39.9942],[-105.1293,39.9942],[-105.13,39.9942],[-105.1301,39.9942],[-105.1305,39.9942],[-105.1306,39.9942],[-105.1309,39.9942],[-105.1312,39.9942],[-105.1313,39.9942],[-105.1314,39.9942],[-105.1315,39.9942],[-105.1316,39.9942],[-105.1317,39.9942],[-105.1318,39.9942],[-105.1319,39.9942],[-105.132,39.9942],[-105.1371,39.9942],[-105.1372,39.9942],[-105.1373,39.9944],[-105.1373,39.9945],[-105.1373,39.9955],[-105.1373,39.9964],[-105.1373,39.9974],[-105.1373,39.9986],[-105.1372,39.9986],[-105.1363,39.9982],[-105.1362,39.9982],[-105.1361,39.9982],[-105.1348,39.9991],[-105.1348,39.9992],[-105.1347,39.9992],[-105.1346,39.9993],[-105.1345,39.9993],[-105.1345,39.9994],[-105.1344,39.9994],[-105.1344,39.9995],[-105.1344,39.9996],[-105.1344,39.9997],[-105.1343,39.9998],[-105.134,40],[-105.1339,40],[-105.1339,40.0001],[-105.1339,40.0002],[-105.1373,40.0001],[-105.1377,40.0001],[-105.1382,40.0001],[-105.1383,40.0001],[-105.1397,40.0002],[-105.1406,40.0002],[-105.1407,40.0002],[-105.142,40.0002],[-105.1421,40.0002],[-105.1432,40.0002],[-105.1447,40.0002],[-105.1455,40.0002],[-105.1458,40.0002],[-105.1461,40.0002],[-105.1466,40.0002],[-105.1467,40.0002],[-105.1473,40.0001],[-105.1474,40.0001],[-105.1479,40.0001],[-105.1483,40.0001],[-105.1484,40.0001],[-105.1493,40.0001],[-105.1503,40.0001],[-105.1513,40.0001],[-105.1514,40.0001],[-105.1519,40.0001],[-105.152,40.0001],[-105.1527,40.0001],[-105.1602,40.0001],[-105.1655,40.0001],[-105.1663,40.0002],[-105.1664,40.0146],[-105.1689,40.0145],[-105.1688,40.0437],[-105.1688,40.0511],[-105.1594,40.051],[-105.1596,40.0727],[-105.1502,40.0727],[-105.1501,40.0727],[-105.1502,40.0727],[-105.1502,40.0786],[-105.1501,40.083],[-105.1501,40.0854],[-105.15,40.0866],[-105.15,40.0871],[-105.1315,40.0872]]]}},{"type":"Feature","properties":{"SchName":"Fairview","SchCode":330,"SchType":"High","StdtPop":0},"geometry":{"type":"Polygon","coordinates":[[[-105.1795,40.0147],[-105.1689,40.0145],[-105.1664,40.0146],[-105.1663,40.0002],[-105.1655,40.0001],[-105.1659,39.9968],[-105.1661,39.9946],[-105.1661,39.9905],[-105.1661,39.9903],[-105.1661,39.9896],[-105.1661,39.9878],[-105.166,39.9872],[-105.166,39.9869],[-105.166,39.9868],[-105.166,39.9862],[-105.166,39.9851],[-105.166,39.9842],[-105.166,39.9831],[-105.166,39.9823],[-105.1659,39.9807],[-105.1659,39.9803],[-105.1658,39.9787],[-105.1659,39.9787],[-105.166,39.9787],[-105.1663,39.9787],[-105.1691,39.9787],[-105.1718,39.9787],[-105.1753,39.9787],[-105.1753,39.9742],[-105.1753,39.9723],[-105.1827,39.9723],[-105.1827,39.9701],[-105.1828,39.9682],[-105.1844,39.9681],[-105.1844,39.9673],[-105.1844,39.9655],[-105.1848,39.9656],[-105.1858,39.966],[-105.1864,39.9662],[-105.1885,39.967],[-105.191,39.9679],[-105.194,39.969],[-105.1941,39.9683],[-105.1941,39.9664],[-105.1941,39.9657],[-105.1941,39.965],[-105.1941,39.9642],[-105.1941,39.963],[-105.1941,39.962],[-105.1941,39.9608],[-105.1941,39.9575],[-105.2035,39.9572],[-105.2035,39.9549],[-105.2035,39.9503],[-105.2035,39.95],[-105.2035,39.9435],[-105.2035,39.9433],[-105.2035,39.9432],[-105.2035,39.936],[-105.2175,39.936],[-105.2175,39.9286],[-105.2174,39.9286],[-105.2174,39.9285],[-105.2174,39.9209],[-105.2174,39.9207],[-105.2174,39.9174],[-105.2174,39.9142],[-105.2602,39.9142],[-105.2765,39.9139],[-105.2956,39.9139],[-105.3048,39.9141],[-105.3141,39.9141],[-105.3227,39.914],[-105.3233,39.914],[-105.3239,39.914],[-105.324,39.9194],[-105.3239,39.9221],[-105.324,39.9226],[-105.3239,39.9245],[-105.3241,39.9283],[-105.3242,39.9283],[-105.3242,39.9284],[-105.3242,39.9285],[-105.3313,39.9313],[-105.3327,39.9318],[-105.3354,39.9328],[-105.3359,39.933],[-105.3352,39.9338],[-105.3359,39.933],[-105.3258,39.9431],[-105.3136,39.9549],[-105.3032,39.9653],[-105.3032,39.9654],[-105.3031,39.9654],[-105.3031,39.9655],[-105.3029,39.9657],[-105.3027,39.9658],[-105.3025,39.966],[-105.3005,39.968],[-105.2982,39.9701],[-105.2967,39.9716],[-105.2949,39.9733],[-105.2931,39.975],[-105.293,39.9751],[-105.2927,39.9754],[-105.2823,39.9858],[-105.2772,39.9858],[-105.2771,39.9858],[-105.276,39.9858],[-105.2725,39.9857],[-105.2725,39.9858],[-105.2725,39.9892],[-105.2723,39.9892],[-105.2721,39.9892],[-105.272,39.9892],[-105.272,39.9893],[-105.2719,39.9893],[-105.2715,39.9893],[-105.2714,39.9894],[-105.2705,39.9899],[-105.2699,39.9893],[-105.2635,39.9893],[-105.263,39.9893],[-105.2581,39.9893],[-105.2576,39.9893],[-105.2571,39.9893],[-105.2563,39.9893],[-105.2565,39.9895],[-105.2617,39.9974],[-105.2613,39.9977],[-105.2603,39.9976],[-105.2602,40.0004],[-105.2601,40.0004],[-105.2584,40.0003],[-105.2584,40.0005],[-105.2586,40.0109],[-105.2561,40.0109],[-105.2561,40.0146],[-105.2443,40.0146],[-105.2406,40.0146],[-105.2205,40.0146],[-105.2191,40.0146],[-105.2156,40.0146],[-105.213,40.0146],[-105.1795,40.0147]]]}},{"type":"Feature","properties":{"SchName":"Monarch","SchCode":360,"SchType":"High","StdtPop":0},"geometry":{"type":"Polygon","coordinates":[[[-105.1397,40.0002],[-105.1383,40.0001],[-105.1382,40.0001],[-105.1377,40.0001],[-105.1373,40.0001],[-105.1339,40.0002],[-105.1339,40.0001],[-105.1339,40],[-105.134,40],[-105.1343,39.9998],[-105.1344,39.9997],[-105.1344,39.9996],[-105.1344,39.9995],[-105.1344,39.9994],[-105.1345,39.9994],[-105.1345,39.9993],[-105.1346,39.9993],[-105.1347,39.9992],[-105.1348,39.9992],[-105.1348,39.9991],[-105.1361,39.9982],[-105.1362,39.9982],[-105.1363,39.9982],[-105.1372,39.9986],[-105.1373,39.9986],[-105.1373,39.9974],[-105.1373,39.9964],[-105.1373,39.9955],[-105.1373,39.9945],[-105.1373,39.9944],[-105.1372,39.9942],[-105.1371,39.9942],[-105.132,39.9942],[-105.1319,39.9942],[-105.1318,39.9942],[-105.1317,39.9942],[-105.1316,39.9942],[-105.1315,39.9942],[-105.1314,39.9942],[-105.1313,39.9942],[-105.1312,39.9942],[-105.1309,39.9942],[-105.1306,39.9942],[-105.1305,39.9942],[-105.1301,39.9942],[-105.13,39.9942],[-105.1293,39.9942],[-105.1292,39.9942],[-105.1291,39.9942],[-105.1289,39.9942],[-105.1288,39.9942],[-105.1287,39.9942],[-105.1285,39.9942],[-105.1284,39.9942],[-105.1283,39.9942],[-105.1282,39.9942],[-105.1281,39.9942],[-105.128,39.9942],[-105.1279,39.9942],[-105.1279,39.9958],[-105.1279,39.9975],[-105.1248,39.9975],[-105.1248,39.9942],[-105.1247,39.9942],[-105.1224,39.9942],[-105.1224,39.9941],[-105.1224,39.9928],[-105.1224,39.9924],[-105.1213,39.9924],[-105.1185,39.9924],[-105.1185,39.9916],[-105.1185,39.9907],[-105.1185,39.9906],[-105.1186,39.987],[-105.1174,39.987],[-105.1174,39.9849],[-105.1174,39.9845],[-105.1174,39.9841],[-105.1174,39.9833],[-105.1174,39.9832],[-105.1142,39.9833],[-105.1141,39.9833],[-105.114,39.9801],[-105.114,39.9777],[-105.1139,39.9772],[-105.114,39.9767],[-105.114,39.9758],[-105.1141,39.9735],[-105.1141,39.9733],[-105.1141,39.9731],[-105.1141,39.973],[-105.1142,39.9725],[-105.1141,39.9725],[-105.1107,39.9725],[-105.1094,39.9725],[-105.1094,39.9723],[-105.1093,39.9651],[-105.1094,39.9621],[-105.1095,39.9579],[-105.1095,39.9566],[-105.1118,39.9559],[-105.1144,39.955],[-105.1174,39.9539],[-105.12,39.9524],[-105.1211,39.9517],[-105.1215,39.9515],[-105.1222,39.9511],[-105.1224,39.9509],[-105.1249,39.9495],[-105.1251,39.9492],[-105.1252,39.9492],[-105.126,39.9485],[-105.1262,39.9483],[-105.1262,39.9482],[-105.1265,39.948],[-105.1274,39.9467],[-105.1274,39.9465],[-105.1275,39.9463],[-105.1276,39.9457],[-105.1277,39.9453],[-105.1277,39.9445],[-105.1278,39.9433],[-105.1279,39.9386],[-105.1281,39.9353],[-105.1281,39.9352],[-105.1282,39.9353],[-105.1337,39.9378],[-105.1375,39.9395],[-105.1376,39.9395],[-105.1376,39.9394],[-105.1375,39.9335],[-105.1376,39.929],[-105.1376,39.9289],[-105.1425,39.9289],[-105.1433,39.9289],[-105.147,39.929],[-105.147,39.9289],[-105.1471,39.9288],[-105.1471,39.9266],[-105.1471,39.9214],[-105.1469,39.9143],[-105.1469,39.9142],[-105.1471,39.9142],[-105.2168,39.9142],[-105.2174,39.9142],[-105.2174,39.9174],[-105.2174,39.9207],[-105.2174,39.9209],[-105.2174,39.9285],[-105.2174,39.9286],[-105.2175,39.9286],[-105.2175,39.936],[-105.2035,39.936],[-105.2035,39.9432],[-105.2035,39.9433],[-105.2035,39.9435],[-105.2035,39.95],[-105.2035,39.9503],[-105.2035,39.9549],[-105.2035,39.9572],[-105.1941,39.9575],[-105.1941,39.9608],[-105.1941,39.9621],[-105.1941,39.963],[-105.1941,39.9642],[-105.1941,39.9657],[-105.1941,39.9683],[-105.194,39.969],[-105.1896,39.9674],[-105.1873,39.9666],[-105.1868,39.9664],[-105.1862,39.9661],[-105.1844,39.9655],[-105.1844,39.9673],[-105.1844,39.9681],[-105.1828,39.9682],[-105.1827,39.9701],[-105.1827,39.9723],[-105.1753,39.9723],[-105.1753,39.9742],[-105.1753,39.9787],[-105.1718,39.9787],[-105.1691,39.9787],[-105.1663,39.9787],[-105.166,39.9787],[-105.1659,39.9787],[-105.1658,39.9787],[-105.1659,39.9803],[-105.1659,39.9807],[-105.166,39.9823],[-105.166,39.9831],[-105.166,39.9842],[-105.166,39.9851],[-105.166,39.9862],[-105.166,39.9868],[-105.166,39.9869],[-105.166,39.9872],[-105.1661,39.9878],[-105.1661,39.9896],[-105.1661,39.9903],[-105.1661,39.9905],[-105.1661,39.9946],[-105.1659,39.9968],[-105.1655,40.0001],[-105.1602,40.0001],[-105.1527,40.0001],[-105.152,40.0001],[-105.1519,40.0001],[-105.1514,40.0001],[-105.1513,40.0001],[-105.1503,40.0001],[-105.1493,40.0001],[-105.1484,40.0001],[-105.1483,40.0001],[-105.1479,40.0001],[-105.1474,40.0001],[-105.1473,40.0001],[-105.1467,40.0002],[-105.1466,40.0002],[-105.1461,40.0002],[-105.1458,40.0002],[-105.1455,40.0002],[-105.1447,40.0002],[-105.1432,40.0002],[-105.1421,40.0002],[-105.142,40.0002],[-105.1407,40.0002],[-105.1406,40.0002],[-105.1397,40.0002]]]}},{"type":"Feature","properties":{"SchName":"Nederland","SchCode":503,"SchType":"High","StdtPop":0},"geometry":{"type":"Polygon","coordinates":[[[-105.4205,40.1437],[-105.4107,40.143],[-105.4062,40.1431],[-105.4061,40.1431],[-105.4062,40.143],[-105.4063,40.1428],[-105.4067,40.1417],[-105.4068,40.1416],[-105.4075,40.1398],[-105.4083,40.1379],[-105.4108,40.132],[-105.4133,40.127],[-105.4145,40.125],[-105.4146,40.1249],[-105.4164,40.1218],[-105.419,40.1172],[-105.4194,40.1166],[-105.4198,40.1159],[-105.4205,40.1146],[-105.4216,40.1127],[-105.4226,40.111],[-105.4254,40.1063],[-105.4275,40.103],[-105.4282,40.1018],[-105.4283,40.1016],[-105.4287,40.101],[-105.4321,40.0941],[-105.4333,40.0917],[-105.4357,40.0871],[-105.4392,40.0859],[-105.4437,40.0841],[-105.4443,40.0838],[-105.4444,40.0838],[-105.4459,40.0831],[-105.4479,40.0823],[-105.448,40.0822],[-105.4481,40.0822],[-105.4486,40.082],[-105.4487,40.0819],[-105.4489,40.0818],[-105.4576,40.0776],[-105.4669,40.0731],[-105.4671,40.073],[-105.4673,40.073],[-105.4761,40.0711],[-105.4856,40.068],[-105.4892,40.067],[-105.4893,40.0669],[-105.4894,40.0669],[-105.4921,40.0661],[-105.4937,40.0656],[-105.4938,40.0656],[-105.4946,40.0654],[-105.4947,40.0654],[-105.5047,40.0655],[-105.5123,40.0657],[-105.513,40.0658],[-105.5126,40.0654],[-105.5067,40.0597],[-105.5041,40.0572],[-105.504,40.0571],[-105.4992,40.0514],[-105.4991,40.0514],[-105.4992,40.0513],[-105.4991,40.0512],[-105.4951,40.047],[-105.4938,40.0456],[-105.4924,40.0442],[-105.4894,40.0413],[-105.4893,40.0412],[-105.4892,40.0411],[-105.4893,40.0411],[-105.4869,40.0386],[-105.4787,40.0303],[-105.4775,40.029],[-105.4753,40.0268],[-105.4698,40.0212],[-105.4668,40.0212],[-105.4493,40.0213],[-105.4477,40.0203],[-105.4462,40.0195],[-105.4447,40.0186],[-105.4398,40.016],[-105.4333,40.0124],[-105.4324,40.0119],[-105.4315,40.0115],[-105.4258,40.0089],[-105.4257,40.0089],[-105.4253,40.0089],[-105.4204,40.0089],[-105.4069,40.0089],[-105.4068,40.0089],[-105.4067,40.0088],[-105.4066,40.0087],[-105.4065,40.0087],[-105.4063,40.0086],[-105.4004,40.005],[-105.3979,40.0034],[-105.3952,40.0017],[-105.3706,39.9857],[-105.3702,39.9855],[-105.3702,39.9783],[-105.3702,39.9658],[-105.3702,39.9566],[-105.3702,39.9562],[-105.3676,39.9541],[-105.3562,39.9448],[-105.3516,39.941],[-105.3444,39.9373],[-105.3434,39.9368],[-105.3401,39.9351],[-105.3366,39.9334],[-105.3359,39.933],[-105.3352,39.9338],[-105.3359,39.933],[-105.3354,39.9328],[-105.3327,39.9318],[-105.3313,39.9313],[-105.3242,39.9285],[-105.3242,39.9284],[-105.3242,39.9283],[-105.3241,39.9283],[-105.3239,39.9245],[-105.324,39.9226],[-105.3239,39.9221],[-105.324,39.9194],[-105.3239,39.914],[-105.3279,39.914],[-105.3325,39.914],[-105.336,39.914],[-105.3419,39.9139],[-105.3465,39.9139],[-105.3513,39.9138],[-105.3609,39.9137],[-105.3681,39.9136],[-105.3701,39.9135],[-105.3935,39.9133],[-105.3965,39.9132],[-105.3985,39.9132],[-105.3981,39.8546],[-105.5374,39.8535],[-105.5378,39.8824],[-105.7008,39.879],[-105.6987,39.8814],[-105.6984,39.8836],[-105.698,39.8844],[-105.6998,39.8855],[-105.6998,39.8877],[-105.7002,39.8912],[-105.6977,39.8951],[-105.6952,39.8961],[-105.6924,39.8975],[-105.6913,39.8994],[-105.6906,39.9024],[-105.6882,39.9043],[-105.6885,39.9071],[-105.6889,39.9092],[-105.6889,39.9122],[-105.6864,39.9136],[-105.6861,39.9163],[-105.6833,39.918],[-105.6826,39.9221],[-105.6811,39.9237],[-105.6801,39.9272],[-105.6769,39.9289],[-105.6783,39.93],[-105.6758,39.9327],[-105.6754,39.933],[-105.6752,39.9334],[-105.6753,39.9335],[-105.6757,39.9335],[-105.6763,39.9335],[-105.6771,39.9333],[-105.6784,39.9332],[-105.6795,39.9332],[-105.6801,39.9334],[-105.6807,39.9336],[-105.6814,39.9337],[-105.6817,39.9337],[-105.6822,39.9338],[-105.6831,39.9341],[-105.6835,39.9344],[-105.6837,39.9346],[-105.6843,39.9354],[-105.6852,39.9363],[-105.6865,39.9376],[-105.6868,39.9378],[-105.6871,39.938],[-105.6874,39.9382],[-105.6879,39.9383],[-105.6894,39.9388],[-105.6901,39.9391],[-105.6903,39.9395],[-105.6905,39.94],[-105.6907,39.9402],[-105.691,39.9404],[-105.6917,39.9408],[-105.6922,39.9411],[-105.6933,39.9416],[-105.6937,39.942],[-105.6939,39.9426],[-105.6937,39.9437],[-105.6935,39.9444],[-105.6932,39.9449],[-105.6929,39.9453],[-105.6926,39.9458],[-105.6921,39.9463],[-105.6919,39.9465],[-105.6919,39.9467],[-105.692,39.9468],[-105.6921,39.9469],[-105.6926,39.9475],[-105.6929,39.9481],[-105.693,39.9485],[-105.6936,39.9486],[-105.6939,39.9488],[-105.6941,39.9491],[-105.6944,39.9496],[-105.6945,39.9499],[-105.6943,39.9506],[-105.6941,39.9511],[-105.6936,39.9516],[-105.6932,39.952],[-105.6923,39.9526],[-105.6917,39.953],[-105.691,39.9534],[-105.6903,39.9536],[-105.6895,39.9538],[-105.689,39.9541],[-105.6888,39.9548],[-105.6887,39.9551],[-105.6886,39.9553],[-105.6887,39.9562],[-105.6886,39.9567],[-105.6881,39.9572],[-105.6876,39.9575],[-105.6865,39.9581],[-105.6858,39.9586],[-105.6855,39.9588],[-105.6852,39.959],[-105.6855,39.9591],[-105.6866,39.9595],[-105.6875,39.9598],[-105.6881,39.9599],[-105.6884,39.96],[-105.6885,39.9604],[-105.6885,39.9608],[-105.6884,39.9615],[-105.6884,39.9621],[-105.6886,39.9626],[-105.6885,39.9631],[-105.6887,39.9633],[-105.689,39.9636],[-105.6893,39.964],[-105.6894,39.9648],[-105.6887,39.967],[-105.6888,39.9676],[-105.689,39.968],[-105.6895,39.9688],[-105.69,39.9695],[-105.6902,39.9698],[-105.6904,39.97],[-105.69,39.971],[-105.6897,39.9716],[-105.6895,39.9723],[-105.689,39.9743],[-105.6887,39.9749],[-105.6885,39.9756],[-105.6882,39.976],[-105.6879,39.9763],[-105.6873,39.9772],[-105.6866,39.9778],[-105.6862,39.9787],[-105.6855,39.9791],[-105.685,39.9797],[-105.685,39.9799],[-105.6851,39.9801],[-105.6854,39.9805],[-105.6855,39.9808],[-105.6854,39.9815],[-105.6853,39.982],[-105.6851,39.983],[-105.6852,39.9833],[-105.6855,39.9837],[-105.6862,39.9844],[-105.6866,39.9848],[-105.6872,39.9853],[-105.6874,39.9855],[-105.6874,39.9857],[-105.6874,39.9859],[-105.6872,39.9861],[-105.6869,39.9864],[-105.6864,39.9869],[-105.6862,39.9872],[-105.6862,39.9875],[-105.6861,39.9879],[-105.6862,39.9893],[-105.6861,39.9898],[-105.6857,39.9902],[-105.6849,39.991],[-105.684,39.9917],[-105.6832,39.9927],[-105.6829,39.993],[-105.6828,39.9934],[-105.6828,39.9938],[-105.6829,39.9944],[-105.6829,39.9948],[-105.6833,39.9949],[-105.6843,39.9949],[-105.6853,39.9951],[-105.6863,39.995],[-105.6874,39.9952],[-105.6891,39.9957],[-105.6901,39.9961],[-105.6906,39.9965],[-105.6912,39.9975],[-105.6914,39.9982],[-105.6912,39.9992],[-105.6911,39.9998],[-105.6905,40.0005],[-105.6903,40.0009],[-105.6902,40.0012],[-105.6902,40.0016],[-105.6902,40.0018],[-105.6903,40.0023],[-105.6903,40.0026],[-105.6903,40.0029],[-105.6908,40.0033],[-105.6909,40.0036],[-105.6907,40.0041],[-105.6902,40.0047],[-105.6899,40.0051],[-105.6896,40.0058],[-105.6893,40.0062],[-105.689,40.0064],[-105.6882,40.0071],[-105.6893,40.0081],[-105.6895,40.0084],[-105.6897,40.0088],[-105.6898,40.0093],[-105.6897,40.0097],[-105.6895,40.0104],[-105.6893,40.0109],[-105.6893,40.0112],[-105.6894,40.0115],[-105.6896,40.012],[-105.6895,40.0124],[-105.6895,40.0129],[-105.6896,40.0135],[-105.6895,40.014],[-105.6892,40.0145],[-105.6887,40.0151],[-105.6882,40.0154],[-105.6879,40.0156],[-105.6874,40.0156],[-105.6871,40.0156],[-105.6869,40.0155],[-105.6866,40.0154],[-105.6864,40.0152],[-105.686,40.015],[-105.6856,40.0147],[-105.6847,40.0147],[-105.684,40.0145],[-105.6832,40.0143],[-105.6826,40.0142],[-105.6817,40.0142],[-105.6808,40.0142],[-105.6804,40.0141],[-105.6797,40.0142],[-105.6788,40.0145],[-105.6778,40.0146],[-105.6769,40.0152],[-105.6756,40.0159],[-105.6752,40.0161],[-105.6746,40.0163],[-105.6735,40.0164],[-105.6722,40.0166],[-105.6711,40.0167],[-105.6699,40.0169],[-105.6695,40.0169],[-105.6688,40.0167],[-105.6681,40.0165],[-105.6672,40.0164],[-105.6662,40.0165],[-105.6633,40.0166],[-105.6623,40.0165],[-105.6615,40.0167],[-105.661,40.017],[-105.6605,40.0176],[-105.6602,40.0183],[-105.6601,40.0185],[-105.6597,40.0186],[-105.6591,40.0191],[-105.6583,40.0194],[-105.6576,40.0197],[-105.6563,40.0198],[-105.6553,40.02],[-105.6541,40.0204],[-105.6528,40.0207],[-105.6523,40.0209],[-105.6519,40.0211],[-105.652,40.0213],[-105.6521,40.0214],[-105.6525,40.0217],[-105.6528,40.0219],[-105.6528,40.0222],[-105.6528,40.0225],[-105.6527,40.023],[-105.6525,40.0236],[-105.6525,40.0243],[-105.6521,40.025],[-105.6517,40.0256],[-105.6513,40.0262],[-105.6506,40.0266],[-105.6502,40.0268],[-105.6497,40.0275],[-105.6498,40.028],[-105.6495,40.028],[-105.6492,40.0286],[-105.6488,40.029],[-105.6482,40.0295],[-105.6472,40.0306],[-105.6461,40.0315],[-105.6452,40.0326],[-105.6426,40.0335],[-105.6408,40.0343],[-105.6407,40.0353],[-105.6408,40.036],[-105.6406,40.0363],[-105.6406,40.0366],[-105.6394,40.0385],[-105.6389,40.0399],[-105.639,40.0412],[-105.639,40.0421],[-105.6386,40.0424],[-105.6384,40.0427],[-105.6383,40.0431],[-105.6386,40.0437],[-105.6385,40.0441],[-105.6381,40.0446],[-105.6375,40.0451],[-105.6374,40.0453],[-105.6374,40.0455],[-105.6374,40.0458],[-105.6375,40.046],[-105.6391,40.0471],[-105.6408,40.0476],[-105.6414,40.048],[-105.6421,40.0482],[-105.6425,40.0484],[-105.643,40.049],[-105.6432,40.0495],[-105.6452,40.0509],[-105.6457,40.0531],[-105.6459,40.0534],[-105.6462,40.0535],[-105.6471,40.0539],[-105.6482,40.0541],[-105.6485,40.0543],[-105.6487,40.0544],[-105.6489,40.0552],[-105.6493,40.0559],[-105.6503,40.0571],[-105.6507,40.0576],[-105.6509,40.0582],[-105.651,40.0585],[-105.6508,40.0588],[-105.6503,40.0594],[-105.6498,40.0598],[-105.6495,40.0602],[-105.6492,40.0606],[-105.6492,40.0609],[-105.6489,40.0614],[-105.6485,40.0623],[-105.6483,40.0627],[-105.6483,40.063],[-105.6479,40.0636],[-105.6476,40.0638],[-105.6475,40.0643],[-105.6475,40.0645],[-105.6472,40.0647],[-105.6469,40.0648],[-105.6467,40.0654],[-105.6465,40.0656],[-105.6459,40.0658],[-105.645,40.0663],[-105.6443,40.0666],[-105.6437,40.0669],[-105.6429,40.0671],[-105.6421,40.0678],[-105.6416,40.0679],[-105.6412,40.0679],[-105.639,40.0672],[-105.6396,40.068],[-105.6402,40.0693],[-105.6408,40.0702],[-105.641,40.0713],[-105.641,40.0723],[-105.6409,40.0727],[-105.6411,40.0731],[-105.641,40.0733],[-105.6402,40.0732],[-105.6391,40.0735],[-105.6387,40.0744],[-105.6373,40.0746],[-105.6369,40.0748],[-105.6365,40.0748],[-105.6358,40.075],[-105.6353,40.0752],[-105.6351,40.0756],[-105.6349,40.0761],[-105.6347,40.0772],[-105.6347,40.0777],[-105.6347,40.0781],[-105.6348,40.0793],[-105.6347,40.0797],[-105.6346,40.08],[-105.6342,40.0806],[-105.6338,40.081],[-105.6331,40.0814],[-105.6325,40.0816],[-105.6334,40.0816],[-105.6339,40.0816],[-105.6342,40.0817],[-105.6346,40.0822],[-105.6352,40.0826],[-105.6356,40.083],[-105.636,40.0844],[-105.636,40.0848],[-105.6358,40.085],[-105.6354,40.085],[-105.6351,40.0851],[-105.6348,40.0853],[-105.6349,40.0855],[-105.6353,40.0862],[-105.6354,40.0867],[-105.6353,40.087],[-105.6353,40.0873],[-105.6352,40.0875],[-105.6349,40.0875],[-105.6343,40.0879],[-105.634,40.0881],[-105.6337,40.0884],[-105.6336,40.0887],[-105.6336,40.0893],[-105.6338,40.0896],[-105.6339,40.0898],[-105.6342,40.0902],[-105.6343,40.0907],[-105.6345,40.0911],[-105.6345,40.0916],[-105.6345,40.0922],[-105.6345,40.0925],[-105.6344,40.0929],[-105.6346,40.0934],[-105.6348,40.0942],[-105.6347,40.0949],[-105.6347,40.0955],[-105.6344,40.0957],[-105.6339,40.0956],[-105.6334,40.0956],[-105.6329,40.0958],[-105.6324,40.0961],[-105.6321,40.0964],[-105.6319,40.0968],[-105.6319,40.0973],[-105.632,40.0975],[-105.6322,40.0977],[-105.6331,40.0983],[-105.6336,40.0987],[-105.6338,40.0991],[-105.6339,40.0994],[-105.6341,40.0996],[-105.6347,40.1],[-105.6351,40.1004],[-105.6355,40.1006],[-105.6358,40.1009],[-105.6359,40.1012],[-105.636,40.1015],[-105.6361,40.1017],[-105.6365,40.1025],[-105.6364,40.103],[-105.6362,40.1035],[-105.6361,40.1043],[-105.6361,40.1048],[-105.6364,40.1061],[-105.6366,40.1067],[-105.6366,40.1073],[-105.6364,40.1078],[-105.6362,40.1081],[-105.6357,40.1083],[-105.6356,40.1086],[-105.636,40.109],[-105.636,40.1094],[-105.6357,40.1098],[-105.6356,40.1102],[-105.6355,40.1113],[-105.6352,40.1121],[-105.6349,40.113],[-105.6345,40.1135],[-105.6341,40.1137],[-105.6334,40.1137],[-105.6329,40.1136],[-105.6322,40.1136],[-105.6317,40.1136],[-105.631,40.1138],[-105.6303,40.1141],[-105.6299,40.1143],[-105.6298,40.1146],[-105.6299,40.1152],[-105.6299,40.1155],[-105.6297,40.1157],[-105.6294,40.1163],[-105.6291,40.117],[-105.6287,40.1174],[-105.6282,40.1178],[-105.6278,40.1183],[-105.6276,40.1186],[-105.627,40.1187],[-105.6265,40.1188],[-105.6268,40.1191],[-105.6275,40.1197],[-105.628,40.1201],[-105.6281,40.1206],[-105.6282,40.121],[-105.628,40.1214],[-105.6277,40.1217],[-105.6275,40.1219],[-105.6275,40.1222],[-105.6279,40.1226],[-105.6283,40.1228],[-105.6286,40.1233],[-105.6287,40.1237],[-105.6286,40.124],[-105.6284,40.1246],[-105.6282,40.1252],[-105.6269,40.1252],[-105.6234,40.1252],[-105.6181,40.1252],[-105.6062,40.1254],[-105.5924,40.1256],[-105.5803,40.1259],[-105.5698,40.1261],[-105.5573,40.1263],[-105.5525,40.1264],[-105.5432,40.1265],[-105.5317,40.1267],[-105.5231,40.1268],[-105.5117,40.1268],[-105.5042,40.1268],[-105.4997,40.1265],[-105.4953,40.1262],[-105.4906,40.126],[-105.486,40.126],[-105.4795,40.126],[-105.4773,40.1259],[-105.4768,40.1259],[-105.4762,40.126],[-105.4717,40.1262],[-105.447,40.1271],[-105.4463,40.1299],[-105.4461,40.1335],[-105.4459,40.1364],[-105.4459,40.1383],[-105.4458,40.1406],[-105.4457,40.1431],[-105.4457,40.1442],[-105.43,40.1437],[-105.4205,40.1437]]]}}]}
