{"type":"FeatureCollection","features":[{"type":"Feature","properties":{},"geometry":{"type":"Polygon","coordinates":[[[-105.3567,40.1451],[-105.3566,40.1355],[-105.3566,40.1335],[-105.3566,40.1307],[-105.3567,40.1236],[-105.3476,40.1236],[-105.3383,40.1239],[-105.3286,40.1238],[-105.3287,40.1163],[-105.3286,40.1066],[-105.3286,40.1054],[-105.3286,40.102],[-105.3289,40.102],[-105.3286,40.1018],[-105.3196,40.1019],[-105.3138,40.102],[-105.3119,40.102],[-105.3095,40.102],[-105.3065,40.1021],[-105.3057,40.1021],[-105.3061,40.1093],[-105.3012,40.1142],[-105.3014,40.1093],[-105.3012,40.1019],[-105.2822,40.1018],[-105.2821,40.0874],[-105.2821,40.0873],[-105.2819,40.0873],[-105.2819,40.0874],[-105.2795,40.0874],[-105.2635,40.0874],[-105.2068,40.0872],[-105.2068,40.0945],[-105.1973,40.0946],[-105.1974,40.0873],[-105.1974,40.0826],[-105.1974,40.0772],[-105.1974,40.077],[-105.1975,40.0762],[-105.1972,40.0761],[-105.1973,40.0757],[-105.1974,40.0756],[-105.1975,40.0755],[-105.1977,40.075],[-105.1978,40.075],[-105.198,40.0748],[-105.1976,40.0746],[-105.1974,40.0745],[-105.1978,40.074],[-105.1979,40.0737],[-105.1979,40.0728],[-105.1939,40.0728],[-105.1885,40.0728],[-105.1881,40.0728],[-105.183,40.0728],[-105.1808,40.0728],[-105.1785,40.0728],[-105.176,40.0728],[-105.1596,40.0727],[-105.1502,40.0727],[-105.1501,40.0727],[-105.1502,40.0727],[-105.1502,40.0786],[-105.1501,40.083],[-105.1501,40.0854],[-105.15,40.0866],[-105.15,40.0871],[-105.1315,40.0872],[-105.1314,40.0836],[-105.1218,40.0837],[-105.1218,40.0801],[-105.113,40.0802],[-105.1131,40.0799],[-105.1122,40.0799],[-105.1119,40.0795],[-105.1119,40.0799],[-105.1029,40.08],[-105.1023,40.0801],[-105.0933,40.0801],[-105.0839,40.0803],[-105.0821,40.0804],[-105.0798,40.0804],[-105.0798,40.0792],[-105.0744,40.0792],[-105.0744,40.0771],[-105.0745,40.0733],[-105.0745,40.0698],[-105.0745,40.0661],[-105.084,40.066],[-105.0908,40.0658],[-105.0908,40.0635],[-105.091,40.0586],[-105.091,40.055],[-105.0911,40.0516],[-105.0934,40.0514],[-105.0932,40.0503],[-105.0939,40.0502],[-105.0933,40.0496],[-105.0937,40.0494],[-105.0934,40.0491],[-105.0934,40.049],[-105.0932,40.0489],[-105.0932,40.0487],[-105.0932,40.0457],[-105.0932,40.0439],[-105.0745,40.0443],[-105.0745,40.0399],[-105.0745,40.037],[-105.0745,40.0336],[-105.0745,40.0297],[-105.0555,40.0295],[-105.0553,40.0149],[-105.0553,40.0148],[-105.0552,40.0005],[-105.053,40.0005],[-105.053,39.9871],[-105.053,39.9867],[-105.053,39.9772],[-105.053,39.9767],[-105.053,39.944],[-105.053,39.9435],[-105.053,39.9251],[-105.0536,39.9251],[-105.053,39.9251],[-105.053,39.9145],[-105.0902,39.9143],[-105.1117,39.9144],[-105.1322,39.9142],[-105.1469,39.9142],[-105.1469,39.9143],[-105.1469,39.9142],[-105.1471,39.9142],[-105.2168,39.9142],[-105.2174,39.9142],[-105.2602,39.9142],[-105.2765,39.9139],[-105.2956,39.9139],[-105.3048,39.9141],[-105.3141,39.9141],[-105.3227,39.914],[-105.3233,39.914],[-105.3239,39.914],[-105.3279,39.914],[-105.3325,39.914],[-105.336,39.914],[-105.3419,39.9139],[-105.3465,39.9139],[-105.3513,39.9138],[-105.3609,39.9137],[-105.3681,39.9136],[-105.3701,39.9135],[-105.3935,39.9133],[-105.3965,39.9132],[-105.3985,39.9132],[-105.3981,39.8546],[-105.5374,39.8535],[-105.5378,39.8824],[-105.7008,39.879],[-105.6987,39.8814],[-105.6984,39.8836],[-105.698,39.8844],[-105.6998,39.8855],[-105.6998,39.8877],[-105.7002,39.8912],[-105.6977,39.8951],[-105.6952,39.8961],[-105.6924,39.8975],[-105.6913,39.8994],[-105.6906,39.9024],[-105.6882,39.9043],[-105.6885,39.9071],[-105.6889,39.9092],[-105.6889,39.9122],[-105.6864,39.9136],[-105.6861,39.9163],[-105.6833,39.918],[-105.6826,39.9221],[-105.6811,39.9237],[-105.6801,39.9272],[-105.6769,39.9289],[-105.6783,39.93],[-105.6758,39.9327],[-105.6754,39.933],[-105.6752,39.9334],[-105.6753,39.9335],[-105.6757,39.9335],[-105.6763,39.9335],[-105.6771,39.9333],[-105.6784,39.9332],[-105.6795,39.9332],[-105.6801,39.9334],[-105.6807,39.9336],[-105.6814,39.9337],[-105.6817,39.9337],[-105.6822,39.9338],[-105.6831,39.9341],[-105.6835,39.9344],[-105.6837,39.9346],[-105.6843,39.9354],[-105.6852,39.9363],[-105.6865,39.9376],[-105.6868,39.9378],[-105.6871,39.938],[-105.6874,39.9382],[-105.6879,39.9383],[-105.6894,39.9388],[-105.6901,39.9391],[-105.6903,39.9395],[-105.6905,39.94],[-105.6907,39.9402],[-105.691,39.9404],[-105.6917,39.9408],[-105.6922,39.9411],[-105.6933,39.9416],[-105.6937,39.942],[-105.6939,39.9426],[-105.6937,39.9437],[-105.6935,39.9444],[-105.6932,39.9449],[-105.6929,39.9453],[-105.6926,39.9458],[-105.6921,39.9463],[-105.6919,39.9465],[-105.6919,39.9467],[-105.692,39.9468],[-105.6921,39.9469],[-105.6926,39.9475],[-105.6929,39.9481],[-105.693,39.9485],[-105.6936,39.9486],[-105.6939,39.9488],[-105.6941,39.9491],[-105.6944,39.9496],[-105.6945,39.9499],[-105.6943,39.9506],[-105.6941,39.9511],[-105.6936,39.9516],[-105.6932,39.952],[-105.6923,39.9526],[-105.6917,39.953],[-105.691,39.9534],[-105.6903,39.9536],[-105.6895,39.9538],[-105.689,39.9541],[-105.6888,39.9548],[-105.6887,39.9551],[-105.6886,39.9553],[-105.6887,39.9562],[-105.6886,39.9567],[-105.6881,39.9572],[-105.6876,39.9575],[-105.6865,39.9581],[-105.6858,39.9586],[-105.6855,39.9588],[-105.6852,39.959],[-105.6855,39.9591],[-105.6866,39.9595],[-105.6875,39.9598],[-105.6881,39.9599],[-105.6884,39.96],[-105.6885,39.9604],[-105.6885,39.9608],[-105.6884,39.9615],[-105.6884,39.9621],[-105.6886,39.9626],[-105.6885,39.9631],[-105.6887,39.9633],[-105.689,39.9636],[-105.6893,39.964],[-105.6894,39.9648],[-105.6887,39.967],[-105.6888,39.9676],[-105.689,39.968],[-105.6895,39.9688],[-105.69,39.9695],[-105.6902,39.9698],[-105.6904,39.97],[-105.69,39.971],[-105.6897,39.9716],[-105.6895,39.9723],[-105.689,39.9743],[-105.6887,39.9749],[-105.6885,39.9756],[-105.6882,39.976],[-105.6879,39.9763],[-105.6873,39.9772],[-105.6866,39.9778],[-105.6862,39.9787],[-105.6855,39.9791],[-105.685,39.9797],[-105.685,39.9799],[-105.6851,39.9801],[-105.6854,39.9805],[-105.6855,39.9808],[-105.6854,39.9815],[-105.6853,39.982],[-105.6851,39.983],[-105.6852,39.9833],[-105.6855,39.9837],[-105.6862,39.9844],[-105.6866,39.9848],[-105.6872,39.9853],[-105.6874,39.9855],[-105.6874,39.9857],[-105.6874,39.9859],[-105.6872,39.9861],[-105.6869,39.9864],[-105.6864,39.9869],[-105.6862,39.9872],[-105.6862,39.9875],[-105.6861,39.9879],[-105.6862,39.9893],[-105.6861,39.9898],[-105.6857,39.9902],[-105.6849,39.991],[-105.684,39.9917],[-105.6832,39.9927],[-105.6829,39.993],[-105.6828,39.9934],[-105.6828,39.9938],[-105.6829,39.9944],[-105.6829,39.9948],[-105.6833,39.9949],[-105.6843,39.9949],[-105.6853,39.9951],[-105.6863,39.995],[-105.6874,39.9952],[-105.6891,39.9957],[-105.6901,39.9961],[-105.6906,39.9965],[-105.6912,39.9975],[-105.6914,39.9982],[-105.6912,39.9992],[-105.6911,39.9998],[-105.6905,40.0005],[-105.6903,40.0009],[-105.6902,40.0012],[-105.6902,40.0016],[-105.6902,40.0018],[-105.6903,40.0023],[-105.6903,40.0026],[-105.6903,40.0029],[-105.6908,40.0033],[-105.6909,40.0036],[-105.6907,40.0041],[-105.6902,40.0047],[-105.6899,40.0051],[-105.6896,40.0058],[-105.6893,40.0062],[-105.689,40.0064],[-105.6882,40.0071],[-105.6893,40.0081],[-105.6895,40.0084],[-105.6897,40.0088],[-105.6898,40.0093],[-105.6897,40.0097],[-105.6895,40.0104],[-105.6893,40.0109],[-105.6893,40.0112],[-105.6894,40.0115],[-105.6896,40.012],[-105.6895,40.0124],[-105.6895,40.0129],[-105.6896,40.0135],[-105.6895,40.014],[-105.6892,40.0145],[-105.6887,40.0151],[-105.6882,40.0154],[-105.6879,40.0156],[-105.6874,40.0156],[-105.6871,40.0156],[-105.6869,40.0155],[-105.6866,40.0154],[-105.6864,40.0152],[-105.686,40.015],[-105.6856,40.0147],[-105.6847,40.0147],[-105.684,40.0145],[-105.6832,40.0143],[-105.6826,40.0142],[-105.6817,40.0142],[-105.6808,40.0142],[-105.6804,40.0141],[-105.6797,40.0142],[-105.6788,40.0145],[-105.6778,40.0146],[-105.6769,40.0152],[-105.6756,40.0159],[-105.6752,40.0161],[-105.6746,40.0163],[-105.6735,40.0164],[-105.6722,40.0166],[-105.6711,40.0167],[-105.6699,40.0169],[-105.6695,40.0169],[-105.6688,40.0167],[-105.6681,40.0165],[-105.6672,40.0164],[-105.6662,40.0165],[-105.6633,40.0166],[-105.6623,40.0165],[-105.6615,40.0167],[-105.661,40.017],[-105.6605,40.0176],[-105.6602,40.0183],[-105.6601,40.0185],[-105.6597,40.0186],[-105.6591,40.0191],[-105.6583,40.0194],[-105.6576,40.0197],[-105.6563,40.0198],[-105.6553,40.02],[-105.6541,40.0204],[-105.6528,40.0207],[-105.6523,40.0209],[-105.6519,40.0211],[-105.652,40.0213],[-105.6521,40.0214],[-105.6525,40.0217],[-105.6528,40.0219],[-105.6528,40.0222],[-105.6528,40.0225],[-105.6527,40.023],[-105.6525,40.0236],[-105.6525,40.0243],[-105.6521,40.025],[-105.6517,40.0256],[-105.6513,40.0262],[-105.6506,40.0266],[-105.6502,40.0268],[-105.6497,40.0275],[-105.6498,40.028],[-105.6495,40.028],[-105.6492,40.0286],[-105.6488,40.029],[-105.6482,40.0295],[-105.6472,40.0306],[-105.6461,40.0315],[-105.6452,40.0326],[-105.6426,40.0335],[-105.6408,40.0343],[-105.6407,40.0353],[-105.6408,40.036],[-105.6406,40.0363],[-105.6406,40.0366],[-105.6394,40.0385],[-105.6389,40.0399],[-105.639,40.0412],[-105.639,40.0421],[-105.6386,40.0424],[-105.6384,40.0427],[-105.6383,40.0431],[-105.6386,40.0437],[-105.6385,40.0441],[-105.6381,40.0446],[-105.6375,40.0451],[-105.6374,40.0453],[-105.6374,40.0455],[-105.6374,40.0458],[-105.6375,40.046],[-105.6391,40.0471],[-105.6408,40.0476],[-105.6414,40.048],[-105.6421,40.0482],[-105.6425,40.0484],[-105.643,40.049],[-105.6432,40.0495],[-105.6452,40.0509],[-105.6457,40.0531],[-105.6459,40.0534],[-105.6462,40.0535],[-105.6471,40.0539],[-105.6482,40.0541],[-105.6485,40.0543],[-105.6487,40.0544],[-105.6489,40.0552],[-105.6493,40.0559],[-105.6503,40.0571],[-105.6507,40.0576],[-105.6509,40.0582],[-105.651,40.0585],[-105.6508,40.0588],[-105.6503,40.0594],[-105.6498,40.0598],[-105.6495,40.0602],[-105.6492,40.0606],[-105.6492,40.0609],[-105.6489,40.0614],[-105.6485,40.0623],[-105.6483,40.0627],[-105.6483,40.063],[-105.6479,40.0636],[-105.6476,40.0638],[-105.6475,40.0643],[-105.6475,40.0645],[-105.6472,40.0647],[-105.6469,40.0648],[-105.6467,40.0654],[-105.6465,40.0656],[-105.6459,40.0658],[-105.645,40.0663],[-105.6443,40.0666],[-105.6437,40.0669],[-105.6429,40.0671],[-105.6421,40.0678],[-105.6416,40.0679],[-105.6412,40.0679],[-105.639,40.0672],[-105.6396,40.068],[-105.6402,40.0693],[-105.6408,40.0702],[-105.641,40.0713],[-105.641,40.0723],[-105.6409,40.0727],[-105.6411,40.0731],[-105.641,40.0733],[-105.6402,40.0732],[-105.6391,40.0735],[-105.6387,40.0744],[-105.6373,40.0746],[-105.6369,40.0748],[-105.6365,40.0748],[-105.6358,40.075],[-105.6353,40.0752],[-105.6351,40.0756],[-105.6349,40.0761],[-105.6347,40.0772],[-105.6347,40.0777],[-105.6347,40.0781],[-105.6348,40.0793],[-105.6347,40.0797],[-105.6346,40.08],[-105.6342,40.0806],[-105.6338,40.081],[-105.6331,40.0814],[-105.6325,40.0816],[-105.6334,40.0816],[-105.6339,40.0816],[-105.6342,40.0817],[-105.6346,40.0822],[-105.6352,40.0826],[-105.6356,40.083],[-105.636,40.0844],[-105.636,40.0848],[-105.6358,40.085],[-105.6354,40.085],[-105.6351,40.0851],[-105.6348,40.0853],[-105.6349,40.0855],[-105.6353,40.0862],[-105.6354,40.0867],[-105.6353,40.087],[-105.6353,40.0873],[-105.6352,40.0875],[-105.6349,40.0875],[-105.6343,40.0879],[-105.634,40.0881],[-105.6337,40.0884],[-105.6336,40.0887],[-105.6336,40.0893],[-105.6338,40.0896],[-105.6339,40.0898],[-105.6342,40.0902],[-105.6343,40.0907],[-105.6345,40.0911],[-105.6345,40.0916],[-105.6345,40.0922],[-105.6345,40.0925],[-105.6344,40.0929],[-105.6346,40.0934],[-105.6348,40.0942],[-105.6347,40.0949],[-105.6347,40.0955],[-105.6344,40.0957],[-105.6339,40.0956],[-105.6334,40.0956],[-105.6329,40.0958],[-105.6324,40.0961],[-105.6321,40.0964],[-105.6319,40.0968],[-105.6319,40.0973],[-105.632,40.0975],[-105.6322,40.0977],[-105.6331,40.0983],[-105.6336,40.0987],[-105.6338,40.0991],[-105.6339,40.0994],[-105.6341,40.0996],[-105.6347,40.1],[-105.6351,40.1004],[-105.6355,40.1006],[-105.6358,40.1009],[-105.6359,40.1012],[-105.636,40.1015],[-105.6361,40.1017],[-105.6365,40.1025],[-105.6364,40.103],[-105.6362,40.1035],[-105.6361,40.1043],[-105.6361,40.1048],[-105.6364,40.1061],[-105.6366,40.1067],[-105.6366,40.1073],[-105.6364,40.1078],[-105.6362,40.1081],[-105.6357,40.1083],[-105.6356,40.1086],[-105.636,40.109],[-105.636,40.1094],[-105.6357,40.1098],[-105.6356,40.1102],[-105.6355,40.1113],[-105.6352,40.1121],[-105.6349,40.113],[-105.6345,40.1135],[-105.6341,40.1137],[-105.6334,40.1137],[-105.6329,40.1136],[-105.6322,40.1136],[-105.6317,40.1136],[-105.631,40.1138],[-105.6303,40.1141],[-105.6299,40.1143],[-105.6298,40.1146],[-105.6299,40.1152],[-105.6299,40.1155],[-105.6297,40.1157],[-105.6294,40.1163],[-105.6291,40.117],[-105.6287,40.1174],[-105.6282,40.1178],[-105.6278,40.1183],[-105.6276,40.1186],[-105.627,40.1187],[-105.6265,40.1188],[-105.6268,40.1191],[-105.6275,40.1197],[-105.628,40.1201],[-105.6281,40.1206],[-105.6282,40.121],[-105.628,40.1214],[-105.6277,40.1217],[-105.6275,40.1219],[-105.6275,40.1222],[-105.6279,40.1226],[-105.6283,40.1228],[-105.6286,40.1233],[-105.6287,40.1237],[-105.6286,40.124],[-105.6284,40.1246],[-105.6282,40.1252],[-105.6269,40.1252],[-105.6234,40.1252],[-105.6181,40.1252],[-105.6062,40.1254],[-105.5924,40.1256],[-105.5803,40.1259],[-105.5698,40.1261],[-105.5573,40.1263],[-105.5525,40.1264],[-105.5432,40.1265],[-105.5317,40.1267],[-105.5231,40.1268],[-105.5117,40.1268],[-105.5042,40.1268],[-105.4997,40.1265],[-105.4953,40.1262],[-105.4906,40.126],[-105.486,40.126],[-105.4795,40.126],[-105.4773,40.1259],[-105.4768,40.1259],[-105.4762,40.126],[-105.4717,40.1262],[-105.447,40.1271],[-105.4463,40.1299],[-105.4461,40.1335],[-105.4459,40.1364],[-105.4459,40.1383],[-105.4458,40.1406],[-105.4457,40.1431],[-105.4457,40.1442],[-105.43,40.1437],[-105.4205,40.1437],[-105.4107,40.143],[-105.4062,40.1431],[-105.4061,40.1431],[-105.3923,40.1434],[-105.3749,40.1451],[-105.3567,40.1451]]]}}]}
